{
  "type": "FeatureCollection",
  "features": [
    {
      "type": "Feature",
      "properties": {
        "norad_id": 37238,
        "name": "INTELSAT 17 (IS-17)",
        "group": "intelsat",
        "lat": -0.02617466558789548,
        "lon": -104.76550041496526,
        "alt_km": 35775.591792407875,
        "timestamp": "2025-12-07T07:31:35.970633+00:00",
        "meta_object_name": "INTELSAT 17 (IS-17)",
        "meta_object_id": "2010-065B",
        "meta_epoch": "2025-12-06T20:20:38.721696",
        "meta_mean_motion": 1.00271728,
        "meta_eccentricity": 0.00024778,
        "meta_inclination": 0.0083,
        "meta_ra_of_asc_node": 306.513,
        "meta_arg_of_pericenter": 306.6743,
        "meta_mean_anomaly": 193.857,
        "meta_ephemeris_type": 0,
        "meta_classification_type": "U",
        "meta_norad_cat_id": 37238,
        "meta_element_set_no": 999,
        "meta_rev_at_epoch": 5132,
        "meta_bstar": 0,
        "meta_mean_motion_dot": 4e-08,
        "meta_mean_motion_ddot": 0,
        "tle_line1": "1 37238U 10065B   25340.84767039  .00000004  00000+0  00000+0 0  9995",
        "tle_line2": "2 37238   0.0083 306.5130 0002477 306.6743 193.8570  1.00271728 51325"
      },
      "geometry": {
        "type": "Point",
        "coordinates": [
          -104.76550041496526,
          -0.02617466558789548
        ]
      }
    },
    {
      "type": "Feature",
      "properties": {
        "norad_id": 37392,
        "name": "INTELSAT 28 (IS-28)",
        "group": "intelsat",
        "lat": 1.2496170211283446,
        "lon": 157.47412654248475,
        "alt_km": 35790.84835605143,
        "timestamp": "2025-12-07T07:31:35.970645+00:00",
        "meta_object_name": "INTELSAT 28 (IS-28)",
        "meta_object_id": "2011-016A",
        "meta_epoch": "2025-12-06T22:04:30.859104",
        "meta_mean_motion": 1.00270517,
        "meta_eccentricity": 0.00041675,
        "meta_inclination": 1.309,
        "meta_ra_of_asc_node": 85.1265,
        "meta_arg_of_pericenter": 177.3165,
        "meta_mean_anomaly": 112.9305,
        "meta_ephemeris_type": 0,
        "meta_classification_type": "U",
        "meta_norad_cat_id": 37392,
        "meta_element_set_no": 999,
        "meta_rev_at_epoch": 5135,
        "meta_bstar": 0,
        "meta_mean_motion_dot": -2.2e-06,
        "meta_mean_motion_ddot": 0,
        "tle_line1": "1 37392U 11016A   25340.91980161 -.00000220  00000+0  00000+0 0  9995",
        "tle_line2": "2 37392   1.3090  85.1265 0004167 177.3165 112.9305  1.00270517 51352"
      },
      "geometry": {
        "type": "Point",
        "coordinates": [
          157.47412654248475,
          1.2496170211283446
        ]
      }
    },
    {
      "type": "Feature",
      "properties": {
        "norad_id": 37834,
        "name": "INTELSAT 18 (IS-18)",
        "group": "intelsat",
        "lat": 0.025066634562211008,
        "lon": 9.255039024082421,
        "alt_km": 35788.80716350983,
        "timestamp": "2025-12-07T07:31:35.970656+00:00",
        "meta_object_name": "INTELSAT 18 (IS-18)",
        "meta_object_id": "2011-056A",
        "meta_epoch": "2025-12-06T17:56:45.630240",
        "meta_mean_motion": 1.00271775,
        "meta_eccentricity": 0.00021414,
        "meta_inclination": 0.0159,
        "meta_ra_of_asc_node": 324.7681,
        "meta_arg_of_pericenter": 296.7437,
        "meta_mean_anomaly": 263.4607,
        "meta_ephemeris_type": 0,
        "meta_classification_type": "U",
        "meta_norad_cat_id": 37834,
        "meta_element_set_no": 999,
        "meta_rev_at_epoch": 5188,
        "meta_bstar": 0,
        "meta_mean_motion_dot": 5.9e-07,
        "meta_mean_motion_ddot": 0,
        "tle_line1": "1 37834U 11056A   25340.74775035  .00000059  00000+0  00000+0 0  9992",
        "tle_line2": "2 37834   0.0159 324.7681 0002141 296.7437 263.4607  1.00271775 51889"
      },
      "geometry": {
        "type": "Point",
        "coordinates": [
          9.255039024082421,
          0.025066634562211008
        ]
      }
    },
    {
      "type": "Feature",
      "properties": {
        "norad_id": 38098,
        "name": "INTELSAT 22 (IS-22)",
        "group": "intelsat",
        "lat": -0.022823563051390963,
        "lon": -98.66383351136129,
        "alt_km": 35778.81745424656,
        "timestamp": "2025-12-07T07:31:35.970668+00:00",
        "meta_object_name": "INTELSAT 22 (IS-22)",
        "meta_object_id": "2012-011A",
        "meta_epoch": "2025-12-06T20:51:22.864896",
        "meta_mean_motion": 1.00271127,
        "meta_eccentricity": 0.00017664,
        "meta_inclination": 0.0098,
        "meta_ra_of_asc_node": 36.0528,
        "meta_arg_of_pericenter": 230.8269,
        "meta_mean_anomaly": 193.9751,
        "meta_ephemeris_type": 0,
        "meta_classification_type": "U",
        "meta_norad_cat_id": 38098,
        "meta_element_set_no": 999,
        "meta_rev_at_epoch": 526,
        "meta_bstar": 0,
        "meta_mean_motion_dot": -5.3e-07,
        "meta_mean_motion_ddot": 0,
        "tle_line1": "1 38098U 12011A   25340.86901464 -.00000053  00000+0  00000+0 0  9992",
        "tle_line2": "2 38098   0.0098  36.0528 0001766 230.8269 193.9751  1.00271127  5260"
      },
      "geometry": {
        "type": "Point",
        "coordinates": [
          -98.66383351136129,
          -0.022823563051390963
        ]
      }
    },
    {
      "type": "Feature",
      "properties": {
        "norad_id": 38356,
        "name": "INTELSAT 19 (IS-19)",
        "group": "intelsat",
        "lat": 4.266602169187496e-05,
        "lon": -4.727429724210167,
        "alt_km": 35787.08833599524,
        "timestamp": "2025-12-07T07:31:35.970680+00:00",
        "meta_object_name": "INTELSAT 19 (IS-19)",
        "meta_object_id": "2012-030A",
        "meta_epoch": "2025-12-06T19:24:38.769120",
        "meta_mean_motion": 1.00270278,
        "meta_eccentricity": 0.00035324,
        "meta_inclination": 0.0099,
        "meta_ra_of_asc_node": 8.9721,
        "meta_arg_of_pericenter": 254.0665,
        "meta_mean_anomaly": 269.9686,
        "meta_ephemeris_type": 0,
        "meta_classification_type": "U",
        "meta_norad_cat_id": 38356,
        "meta_element_set_no": 999,
        "meta_rev_at_epoch": 4852,
        "meta_bstar": 0,
        "meta_mean_motion_dot": -5.1e-07,
        "meta_mean_motion_ddot": 0,
        "tle_line1": "1 38356U 12030A   25340.80878205 -.00000051  00000+0  00000+0 0  9998",
        "tle_line2": "2 38356   0.0099   8.9721 0003532 254.0665 269.9686  1.00270278 48525"
      },
      "geometry": {
        "type": "Point",
        "coordinates": [
          -4.727429724210167,
          4.266602169187496e-05
        ]
      }
    },
    {
      "type": "Feature",
      "properties": {
        "norad_id": 38740,
        "name": "INTELSAT 20 (IS-20)",
        "group": "intelsat",
        "lat": -0.004777481668691961,
        "lon": -102.22483323221446,
        "alt_km": 35782.90756545438,
        "timestamp": "2025-12-07T07:31:35.970692+00:00",
        "meta_object_name": "INTELSAT 20 (IS-20)",
        "meta_object_id": "2012-043A",
        "meta_epoch": "2025-12-06T20:20:38.721696",
        "meta_mean_motion": 1.00270943,
        "meta_eccentricity": 0.00028617,
        "meta_inclination": 0.0082,
        "meta_ra_of_asc_node": 78.3348,
        "meta_arg_of_pericenter": 105.6761,
        "meta_mean_anomaly": 265.545,
        "meta_ephemeris_type": 0,
        "meta_classification_type": "U",
        "meta_norad_cat_id": 38740,
        "meta_element_set_no": 999,
        "meta_rev_at_epoch": 4882,
        "meta_bstar": 0,
        "meta_mean_motion_dot": -1.9e-07,
        "meta_mean_motion_ddot": 0,
        "tle_line1": "1 38740U 12043A   25340.84767039 -.00000019  00000+0  00000+0 0  9999",
        "tle_line2": "2 38740   0.0082  78.3348 0002861 105.6761 265.5450  1.00270943 48825"
      },
      "geometry": {
        "type": "Point",
        "coordinates": [
          -102.22483323221446,
          -0.004777481668691961
        ]
      }
    },
    {
      "type": "Feature",
      "properties": {
        "norad_id": 38749,
        "name": "INTELSAT 21 (IS-21)",
        "group": "intelsat",
        "lat": 0.022634356839966046,
        "lon": 131.21307683001535,
        "alt_km": 35791.08385330583,
        "timestamp": "2025-12-07T07:31:35.970704+00:00",
        "meta_object_name": "INTELSAT 21 (IS-21)",
        "meta_object_id": "2012-045A",
        "meta_epoch": "2025-12-06T21:57:01.577376",
        "meta_mean_motion": 1.00271088,
        "meta_eccentricity": 0.00022547,
        "meta_inclination": 0.0168,
        "meta_ra_of_asc_node": 348.829,
        "meta_arg_of_pericenter": 262.233,
        "meta_mean_anomaly": 96.1467,
        "meta_ephemeris_type": 0,
        "meta_classification_type": "U",
        "meta_norad_cat_id": 38749,
        "meta_element_set_no": 999,
        "meta_rev_at_epoch": 4859,
        "meta_bstar": 0,
        "meta_mean_motion_dot": -2.79e-06,
        "meta_mean_motion_ddot": 0,
        "tle_line1": "1 38749U 12045A   25340.91460159 -.00000279  00000+0  00000+0 0  9999",
        "tle_line2": "2 38749   0.0168 348.8290 0002254 262.2330  96.1467  1.00271088 48599"
      },
      "geometry": {
        "type": "Point",
        "coordinates": [
          131.21307683001535,
          0.022634356839966046
        ]
      }
    }
  ]
}